*******************************************************************************
 Revised: July 31, 2013                  Earth                              399
 
 GEOPHYSICAL PROPERTIES (revised Aug 15, 2018):
  Vol. Mean Radius (km)    = 6371.01+-0.02   Mass x10^24 (kg)= 5.97219+-0.0006
  Equ. radius, km          = 6378.137        Mass layers:
  Polar axis, km           = 6356.752          Atmos         = 5.1   x 10^18 kg
  Flattening               = 1/298.257223563   oceans        = 1.4   x 10^21 kg
  Density, g/cm^3          = 5.51              crust         = 2.6   x 10^22 kg
  J2 (IERS 2010)           = 0.00108262545     mantle        = 4.043 x 10^24 kg
  g_p, m/s^2  (polar)      = 9.8321863685      outer core    = 1.835 x 10^24 kg
  g_e, m/s^2  (equatorial) = 9.7803267715      inner core    = 9.675 x 10^22 kg
  g_o, m/s^2               = 9.82022         Fluid core rad  = 3480 km
  GM, km^3/s^2             = 398600.435436   Inner core rad  = 1215 km
  GM 1-sigma, km^3/s^2     =      0.0014     Escape velocity = 11.186 km/s
  Rot. Rate (rad/s)        = 0.00007292115   Surface area:
  Mean sidereal day, hr    = 23.9344695944     land          = 1.48 x 10^8 km
  Mean solar day 2000.0, s = 86400.002         sea           = 3.62 x 10^8 km
  Mean solar day 1820.0, s = 86400.0         Love no., k2    = 0.299
  Moment of inertia        = 0.3308          Atm. pressure   = 1.0 bar
  Mean temperature, K      = 270             Volume, km^3    = 1.08321 x 10^12
  Mean effect. IR temp, K  = 255             Magnetic moment = 0.61 gauss Rp^3
  Geometric albedo         = 0.367           Vis. mag. V(1,0)= -3.86
  Solar Constant (W/m^2)   = 1367.6 (mean), 1414 (perihelion), 1322 (aphelion)
 HELIOCENTRIC ORBIT CHARACTERISTICS:
  Obliquity to orbit, deg  = 23.4392911  Sidereal orb period  = 1.0000174 y
  Orbital speed, km/s      = 29.79       Sidereal orb period  = 365.25636 d
  Mean daily motion, deg/d = 0.9856474   Hill's sphere radius = 234.9       
*******************************************************************************
 
 
*******************************************************************************
Ephemeris / WWW_USER Thu May  7 09:28:06 2020 Pasadena, USA      / Horizons    
*******************************************************************************
Target body name: Earth (399)                     {source: DE431mx}
Center body name: Sun (10)                        {source: DE431mx}
Center-site name: BODY CENTER
*******************************************************************************
Start time      : A.D. 1990-Jan-01 00:00:00.0000 TDB
Stop  time      : A.D. 2020-Jan-01 00:00:00.0000 TDB
Step-size       : 1440 minutes
*******************************************************************************
Center geodetic : 0.00000000,0.00000000,0.0000000 {E-lon(deg),Lat(deg),Alt(km)}
Center cylindric: 0.00000000,0.00000000,0.0000000 {E-lon(deg),Dxy(km),Dz(km)}
Center radii    : 696000.0 x 696000.0 x 696000.0 k{Equator, meridian, pole}    
Output units    : AU-D                                                         
Output type     : GEOMETRIC cartesian states
Output format   : 2 (position and velocity)
Reference frame : ICRF/J2000.0                                                 
Coordinate systm: Ecliptic and Mean Equinox of Reference Epoch                 
*******************************************************************************
            JDTDB,            Calendar Date (TDB),                      X,                      Y,                      Z,                     VX,                     VY,                     VZ,
**************************************************************************************************************************************************************************************************
$$SOE
2452790.500000000, A.D. 2003-May-31 00:00:00.0000, -3.613607209301833E-01, -9.472447840802672E-01,  7.507040496689668E-06,  1.580057224957473E-02, -6.199071146326495E-03, -5.640677419359893E-07,
2452791.500000000, A.D. 2003-Jun-01 00:00:00.0000, -3.455093548921913E-01, -9.533083828511638E-01,  6.955975572510126E-06,  1.590135248369539E-02, -5.927842966633388E-03, -5.332720360840011E-07,
2452792.500000000, A.D. 2003-Jun-02 00:00:00.0000, -3.295596383936649E-01, -9.590999253585467E-01,  6.449929301126859E-06,  1.599726579136122E-02, -5.654981045227532E-03, -4.742140474201466E-07,
2452793.500000000, A.D. 2003-Jun-03 00:00:00.0000, -3.135164585797714E-01, -9.646178461910366E-01,  6.016427441606944E-06,  1.608827371195576E-02, -5.380623050288297E-03, -3.885549291693663E-07,
2452794.500000000, A.D. 2003-Jun-04 00:00:00.0000, -2.973847348450033E-01, -9.698607203870276E-01,  5.680759581074402E-06,  1.617435048408868E-02, -5.104911962631242E-03, -2.791157612387026E-07,
2452795.500000000, A.D. 2003-Jun-05 00:00:00.0000, -2.811694053173407E-01, -9.748272679513036E-01,  5.464792809438630E-06,  1.625548467164967E-02, -4.827994440184944E-03, -1.499276092863241E-07,
2452796.500000000, A.D. 2003-Jun-06 00:00:00.0000, -2.648754117028087E-01, -9.795163565970476E-01,  5.385741161448160E-06,  1.633168085349867E-02, -4.550018886091320E-03, -6.271985902981610E-09,
2452797.500000000, A.D. 2003-Jun-07 00:00:00.0000, -2.485076823213082E-01, -9.839270023097781E-01,  5.454897059595073E-06,  1.640296157516857E-02, -4.271132951697319E-03,  1.452851278683524E-07,
2452798.500000000, A.D. 2003-Jun-08 00:00:00.0000, -2.320711130514004E-01, -9.880583668951503E-01,  5.676342390298524E-06,  1.646936954033053E-02, -3.991479878048433E-03,  2.968954339555819E-07,
2452799.500000000, A.D. 2003-Jun-09 00:00:00.0000, -2.155705461696510E-01, -9.919097509597037E-01,  6.045711494839244E-06,  1.653096947244924E-02, -3.711192891761881E-03,  4.395485054418963E-07,
2452800.500000000, A.D. 2003-Jun-10 00:00:00.0000, -1.990107480356516E-01, -9.954805800642786E-01,  6.549187984555511E-06,  1.658784825639899E-02, -3.430387123462485E-03,  5.634448084316929E-07,
2452801.500000000, A.D. 2003-Jun-11 00:00:00.0000, -1.823963883713183E-01, -9.987703816948115E-01,  7.163063609543059E-06,  1.664011121654083E-02, -3.149149538856995E-03,  6.587675539411696E-07,
2452802.500000000, A.D. 2003-Jun-12 00:00:00.0000, -1.657320261040327E-01, -1.001778752051717E+00,  7.854298548597424E-06,  1.668787244787254E-02, -2.867529210458957E-03,  7.169076894523171E-07,
2452803.500000000, A.D. 2003-Jun-13 00:00:00.0000, -1.490221081175174E-01, -1.004505314989264E+00,  8.582473360172157E-06,  1.673123886408271E-02, -2.585532149899499E-03,  7.319687756286810E-07,
2452804.500000000, A.D. 2003-Jun-14 00:00:00.0000, -1.322709859611305E-01, -1.006949679990332E+00,  9.303205022149069E-06,  1.677029107620492E-02, -2.303125147213274E-03,  7.020951817368266E-07,
2452805.500000000, A.D. 2003-Jun-15 00:00:00.0000, -1.154829506773466E-01, -1.009111409319401E+00,  9.972558758418547E-06,  1.680506748550612E-02, -2.020250133230003E-03,  6.300473269755472E-07,
2452806.500000000, A.D. 2003-Jun-16 00:00:00.0000, -9.866227911765002E-02, -1.010990003483502E+00,  1.055149871481425E-05,  1.683555805206192E-02, -1.736845397459920E-03,  5.226869069720088E-07,
2452807.500000000, A.D. 2003-Jun-17 00:00:00.0000, -8.181328045799596E-02, -1.012584908277857E+00,  1.100932939491730E-05,  1.686171000759474E-02, -1.452866201589079E-03,  3.895459838692016E-07,
2452808.500000000, A.D. 2003-Jun-18 00:00:00.0000, -6.494033225771040E-02, -1.013895539179530E+00,  1.132548554478432E-05,  1.688344210962820E-02, -1.168298042519902E-03,  2.410684029399159E-07,
2452809.500000000, A.D. 2003-Jun-19 00:00:00.0000, -4.804790065150259E-02, -1.014921314143274E+00,  1.148966593505627E-05,  1.690066103292789E-02, -8.831602328925483E-04,  8.714037988642266E-08,
2452810.500000000, A.D. 2003-Jun-20 00:00:00.0000, -3.114054543578030E-02, -1.015661685899899E+00,  1.150079240879318E-05,  1.691327453854952E-02, -5.975019312452207E-04, -6.376672591547596E-08,
2452811.500000000, A.D. 2003-Jun-21 00:00:00.0000, -1.422291465562884E-02, -1.016116168182948E+00,  1.136542235664843E-05,  1.692119919920551E-02, -3.113946454633416E-04, -2.048561080343624E-07,
2452812.500000000, A.D. 2003-Jun-22 00:00:00.0000,  2.700265938535802E-03, -1.016284354191951E+00,  1.109611945290789E-05,  1.692436316254538E-02, -2.492465308510370E-05, -3.308686342104028E-07,
2452813.500000000, A.D. 2003-Jun-23 00:00:00.0000,  1.962420441156219E-02, -1.016165928284686E+00,  1.071006439139382E-05,  1.692270565513156E-02,  2.618127760630537E-04, -4.377731941404182E-07,
2452814.500000000, A.D. 2003-Jun-24 00:00:00.0000,  3.654405278294291E-02, -1.015760673056211E+00,  1.022799038753608E-05,  1.691617497604207E-02,  5.487168221079951E-04, -5.224476858066381E-07,
2452815.500000000, A.D. 2003-Jun-25 00:00:00.0000,  5.345491496760479E-02, -1.015068474061504E+00,  9.673401789851410E-06,  1.690472627908792E-02,  8.356824619852773E-04, -5.824418365778439E-07,
2452816.500000000, A.D. 2003-Jun-26 00:00:00.0000,  7.035185274846532E-02, -1.014089324014710E+00,  9.071971588933448E-06,  1.688831995455207E-02,  1.122600271780614E-03, -6.158596291866558E-07,
2452817.500000000, A.D. 2003-Jun-27 00:00:00.0000,  8.722989062724057E-02, -1.012823327696725E+00,  8.450993673052241E-06,  1.686692105375354E-02,  1.409355313485391E-03, -6.213662427078024E-07,
2452818.500000000, A.D. 2003-Jun-28 00:00:00.0000,  1.040840207060460E-01, -1.011270708170858E+00,  7.838771799782931E-06,  1.684049993742172E-02,  1.695825735928610E-03, -5.983035981769325E-07,
2452819.500000000, A.D. 2003-Jun-29 00:00:00.0000,  1.209092088215711E-01, -1.009431814286133E+00,  7.263851509052493E-06,  1.680903410750724E-02,  1.981881695682259E-03, -5.468823194308460E-07,
2452820.500000000, A.D. 2003-Jun-30 00:00:00.0000,  1.377004030032544E-01, -1.007307128871215E+00,  6.754040603877995E-06,  1.677251096163603E-02,  2.267385134707416E-03, -4.684039893427708E-07,
